<?xml version="1.0" encoding="UTF-8"?>
<kml xmlns="http://www.opengis.net/kml/2.2"><Document>
<name>도쿄 빕구르망 111 · MICHELIN Guide 2026</name>
<description>guide.michelin.com 수집 2026-08-19</description>
<Placemark>
<name>Ramenya Toy Box</name>
<description><![CDATA[ラーメン屋 トイ・ボックス<br/>라멘 · ¥ · 타베로그 3.79<br/>1-1-3 Higashinippori, Arakawa-ku<br/>+81 3-6458-3664<br/><a href="https://guide.michelin.com/en/tokyo-region/tokyo/restaurant/ramenya-toy-box">MICHELIN</a> · <a href="https://tabelog.com/tokyo/A1324/A132401/13162973/">타베로그</a>]]></description>
<Point><coordinates>139.792083,35.731118,0</coordinates></Point>
</Placemark>
<Placemark>
<name>Hashimoto</name>
<description><![CDATA[はし本<br/>장어 · ¥ · 타베로그 3.74<br/>2-5-7 Suido, Bunkyo-ku<br/>+81 3-3811-4850<br/><a href="https://guide.michelin.com/en/tokyo-region/tokyo/restaurant/hashimoto">MICHELIN</a> · <a href="https://tabelog.com/tokyo/A1309/A130905/13018616/">타베로그</a> · <a href="https://omakaseje.com/restaurants/bo937425?utm_source=michelinofficial&amp;utm_medium=referral&amp;utm_content=booking_btn">예약</a>]]></description>
<Point><coordinates>139.736306,35.709277,0</coordinates></Point>
</Placemark>
<Placemark>
<name>Ma Poule</name>
<description><![CDATA[マ プール<br/>프렌치 · ¥¥ · 타베로그 3.83<br/>2-19-17 Nishikata, Bunkyo-ku<br/>+81 3-3868-2518<br/><a href="https://guide.michelin.com/en/tokyo-region/tokyo/restaurant/ma-poule">MICHELIN</a> · <a href="https://tabelog.com/tokyo/A1310/A131004/13206266/">타베로그</a>]]></description>
<Point><coordinates>139.757224,35.716254,0</coordinates></Point>
</Placemark>
<Placemark>
<name>Watabe</name>
<description><![CDATA[わたべ<br/>장어 · ¥¥ · 타베로그 4.06<br/>1-9-14 Koishikawa, Bunkyo-ku<br/>+81 3-3812-7448<br/><a href="https://guide.michelin.com/en/tokyo-region/tokyo/restaurant/watabe">MICHELIN</a> · <a href="https://tabelog.com/tokyo/A1310/A131003/13042184/">타베로그</a>]]></description>
<Point><coordinates>139.752119,35.711314,0</coordinates></Point>
</Placemark>
<Placemark>
<name>wokotote</name>
<description><![CDATA[をことて<br/>일식 · ¥¥ · 타베로그 3.51<br/>2-35-1 Nezu, Bunkyo-ku<br/>+81 3-5834-2144<br/><a href="https://guide.michelin.com/en/tokyo-region/tokyo/restaurant/wokotote">MICHELIN</a> · <a href="https://tabelog.com/tokyo/A1311/A131106/13279398/">타베로그</a> · <a href="https://omakaseje.com/restaurants/sh785637?utm_source=michelinofficial&amp;utm_medium=referral&amp;utm_content=booking_btn">예약</a>]]></description>
<Point><coordinates>139.763506,35.720302,0</coordinates></Point>
</Placemark>
<Placemark>
<name>Biriyani Osawa</name>
<description><![CDATA[ビリヤニ大澤<br/>인도 · ¥ · 타베로그 3.96<br/>B1F, 1-15-12 Uchikanda, Chiyoda-ku<br/>+81 3-6687-9853<br/><a href="https://guide.michelin.com/en/tokyo-region/tokyo/restaurant/biriyani-osawa">MICHELIN</a> · <a href="https://tabelog.com/tokyo/A1310/A131002/13262438/">타베로그</a> · <a href="https://www.tablecheck.com/shops/biriyani-osawa/reserve?utm_source=michelin_guide">예약</a>]]></description>
<Point><coordinates>139.76607,35.69221,0</coordinates></Point>
</Placemark>
<Placemark>
<name>SANTOSHAM</name>
<description><![CDATA[三燈舎<br/>인도 · ¥ · 타베로그 3.66<br/>2F, 3-2 Kandaogawamachi, Chiyoda-ku<br/>+81 50-3697-2547<br/><a href="https://guide.michelin.com/en/tokyo-region/tokyo/restaurant/santosham">MICHELIN</a> · <a href="https://tabelog.com/tokyo/A1310/A131002/13234867/">타베로그</a> · <a href="https://omakaseje.com/restaurants/tl857816?utm_source=michelinofficial&amp;utm_medium=referral&amp;utm_content=booking_btn">예약</a>]]></description>
<Point><coordinates>139.762667,35.694763,0</coordinates></Point>
</Placemark>
<Placemark>
<name>ARROCERÍA La Panza</name>
<description><![CDATA[アロセリア ラ パンサ<br/>스페인 · ¥¥ · 타베로그 3.68<br/>1-15-8 Ginza, Chuo-ku<br/>+81 3-6228-6793<br/><a href="https://guide.michelin.com/en/tokyo-region/tokyo/restaurant/arroceria-la-panza">MICHELIN</a> · <a href="https://tabelog.com/tokyo/A1301/A130101/13205229/">타베로그</a> · <a href="https://www.tablecheck.com/shops/la-panza/reserve?utm_source=michelin_guide">예약</a>]]></description>
<Point><coordinates>139.770106,35.673366,0</coordinates></Point>
</Placemark>
<Placemark>
<name>Bistrot Vivienne</name>
<description><![CDATA[ビストロ ヴィヴィエンヌ<br/>프렌치 · ¥¥ · 타베로그 3.57<br/>4-13-19 Ginza, Chuo-ku<br/>+81 3-6273-2830<br/><a href="https://guide.michelin.com/en/tokyo-region/tokyo/restaurant/bistrot-vivienne">MICHELIN</a> · <a href="https://tabelog.com/tokyo/A1301/A130101/13049131/">타베로그</a>]]></description>
<Point><coordinates>139.768817,35.669678,0</coordinates></Point>
</Placemark>
<Placemark>
<name>Chukasoba Ginza Hachigou</name>
<description><![CDATA[中華そば 銀座 八五<br/>라멘 · ¥ · 타베로그 3.91<br/>3-14-2 Ginza, Chuo-ku<br/><a href="https://guide.michelin.com/en/tokyo-region/tokyo/restaurant/chukasoba-ginza-hachigo">MICHELIN</a> · <a href="https://tabelog.com/tokyo/A1301/A130101/13228602/">타베로그</a> · <a href="https://www.tablecheck.com/shops/ginza-hachigou/reserve?utm_source=michelin_guide">예약</a>]]></description>
<Point><coordinates>139.770185,35.670563,0</coordinates></Point>
</Placemark>
<Placemark>
<name>Ginza HARU CHAN Ramen</name>
<description><![CDATA[銀座はるちゃんラーメン<br/>라멘 · ¥ · 타베로그 3.65<br/>3-11-6 Ginza, Chuo-ku<br/>+81 3-6260-6088<br/><a href="https://guide.michelin.com/en/tokyo-region/tokyo/restaurant/ginza-haru-chan-ramen">MICHELIN</a> · <a href="https://tabelog.com/tokyo/A1301/A130101/13299064/">타베로그</a>]]></description>
<Point><coordinates>139.768831,35.67082,0</coordinates></Point>
</Placemark>
<Placemark>
<name>GINZA KATSUKAMI II</name>
<description><![CDATA[ぎんざ かつかみ弐<br/>돈카츠 · ¥¥<br/>4F, Kojun Bldg, 6-8-7 Ginza, Chuo-ku<br/>+81 3-6264-6775<br/><a href="https://guide.michelin.com/en/tokyo-region/tokyo/restaurant/ginza-katsukami-ii">MICHELIN</a> · <a href="https://www.tablecheck.com/ja/shops/katsukami2/reserve?utm_source=michelin_guide">예약</a>]]></description>
<Point><coordinates>139.762822,35.670064,0</coordinates></Point>
</Placemark>
<Placemark>
<name>Hamacho Kaneko</name>
<description><![CDATA[浜町 かねこ<br/>소바 · ¥ · 타베로그 3.57<br/>3-7-3 Nihombashihamacho, Chuo-ku<br/>+81 3-4291-3303<br/><a href="https://guide.michelin.com/en/tokyo-region/tokyo/restaurant/hamacho-kaneko">MICHELIN</a> · <a href="https://tabelog.com/tokyo/A1302/A130204/13186028/">타베로그</a>]]></description>
<Point><coordinates>139.788273,35.684005,0</coordinates></Point>
</Placemark>
<Placemark>
<name>HOPPERS</name>
<description><![CDATA[ホッパーズ<br/>스리랑카 · ¥¥ · 타베로그 3.74<br/>7-1 Nihombashikabutocho, Chuo-ku<br/>+81 3-6890-1547<br/><a href="https://guide.michelin.com/en/tokyo-region/tokyo/restaurant/hoppers-1206470">MICHELIN</a> · <a href="https://tabelog.com/tokyo/A1302/A130203/13266235/">타베로그</a> · <a href="https://www.tablecheck.com/shops/hoppers/reserve?utm_source=michelin_guide">예약</a>]]></description>
<Point><coordinates>139.778125,35.681353,0</coordinates></Point>
</Placemark>
<Placemark>
<name>Katsuyoshi</name>
<description><![CDATA[かつ好<br/>돈카츠 · ¥ · 타베로그 3.74<br/>3-4-11 Nihombashiningyocho, Chuo-ku<br/>+81 3-6231-0641<br/><a href="https://guide.michelin.com/en/tokyo-region/tokyo/restaurant/katsuyoshi">MICHELIN</a> · <a href="https://tabelog.com/tokyo/A1302/A130204/13204633/">타베로그</a>]]></description>
<Point><coordinates>139.781217,35.686215,0</coordinates></Point>
</Placemark>
<Placemark>
<name>LA BETTOLA da Ochiai</name>
<description><![CDATA[ラ・ベットラ・ダ・オチアイ<br/>이탈리안 · ¥¥ · 타베로그 3.68<br/>1-21-2 Ginza, Chuo-ku<br/>+81 3-3567-5656<br/><a href="https://guide.michelin.com/en/tokyo-region/tokyo/restaurant/la-bettola-da-ochiai">MICHELIN</a> · <a href="https://tabelog.com/tokyo/A1313/A131301/13002504/">타베로그</a>]]></description>
<Point><coordinates>139.771142,35.672764,0</coordinates></Point>
</Placemark>
<Placemark>
<name>Le Nougat</name>
<description><![CDATA[ヌガ<br/>프렌치 · ¥¥ · 타베로그 3.73<br/>6-12-2 Ginza, Chuo-ku<br/>+81 3-6254-5105<br/><a href="https://guide.michelin.com/en/tokyo-region/tokyo/restaurant/le-nougat">MICHELIN</a> · <a href="https://tabelog.com/tokyo/A1301/A130101/13048464/">타베로그</a> · <a href="https://www.tablecheck.com/shops/le-nougat/reserve?utm_source=michelin_guide">예약</a>]]></description>
<Point><coordinates>139.764924,35.669271,0</coordinates></Point>
</Placemark>
<Placemark>
<name>Les Copains de DOMINIQUE BOUCHET</name>
<description><![CDATA[レ・コパン ドゥ ドミニク・ブシェ<br/>프렌치 · ¥¥ · 타베로그 3.52<br/>B1F, 5-1-8 Ginza, Chuo-ku<br/>+81 3-6264-6566<br/><a href="https://guide.michelin.com/en/tokyo-region/tokyo/restaurant/les-copains-de-dominique-bouchet">MICHELIN</a> · <a href="https://tabelog.com/tokyo/A1301/A130101/13197223/">타베로그</a> · <a href="https://omakaseje.com/r/fs630636?utm_source=michelinofficial&amp;utm_medium=referral&amp;utm_content=booking_btn">예약</a>]]></description>
<Point><coordinates>139.761755,35.671997,0</coordinates></Point>
</Placemark>
<Placemark>
<name>Osteria da K. [káppa]</name>
<description><![CDATA[オステリア ダ カッパ<br/>이탈리안 · ¥¥<br/>5F, 8-7-2 Ginza, Chuo-ku<br/>+81 3-6274-6620<br/><a href="https://guide.michelin.com/en/tokyo-region/tokyo/restaurant/osteria-da-k-kappa">MICHELIN</a>]]></description>
<Point><coordinates>139.761527,35.668851,0</coordinates></Point>
</Placemark>
<Placemark>
<name>Yaesu Unagi Hashimoto</name>
<description><![CDATA[八重洲 鰻 はし本<br/>장어 · ¥¥ · 타베로그 3.93<br/>1-5-10 Yaesu, Chuo-ku<br/>+81 50-1808-6166<br/><a href="https://guide.michelin.com/en/tokyo-region/tokyo/restaurant/yaesu-unagi-hashimoto">MICHELIN</a> · <a href="https://tabelog.com/tokyo/A1302/A130202/13303042/">타베로그</a> · <a href="https://www.tablecheck.com/shops/unagihashimoto/reserve?utm_source=michelin_guide">예약</a>]]></description>
<Point><coordinates>139.771301,35.681677,0</coordinates></Point>
</Placemark>
<Placemark>
<name>YAMATO</name>
<description><![CDATA[ヤマト<br/>이자카야 · ¥¥ · 타베로그 3.6<br/>16-3 Nihombashitomizawacho, Chuo-ku<br/>+81 3-3661-8010<br/><a href="https://guide.michelin.com/en/tokyo-region/tokyo/restaurant/yamato-1194199">MICHELIN</a> · <a href="https://tabelog.com/tokyo/A1302/A130204/13040338/">타베로그</a>]]></description>
<Point><coordinates>139.784335,35.688123,0</coordinates></Point>
</Placemark>
<Placemark>
<name>Ittoan</name>
<description><![CDATA[一東菴<br/>소바 · ¥ · 타베로그 3.71<br/>2-16-10 Higashijujo, Kita-ku<br/>+81 3-6903-3833<br/><a href="https://guide.michelin.com/en/tokyo-region/tokyo/restaurant/ittoan">MICHELIN</a> · <a href="https://tabelog.com/tokyo/A1323/A132304/13143622/">타베로그</a>]]></description>
<Point><coordinates>139.728912,35.763091,0</coordinates></Point>
</Placemark>
<Placemark>
<name>TRATTORIA BUCA'MASSIMO</name>
<description><![CDATA[トラットリア ブカ・マッシモ<br/>이탈리안 · ¥¥ · 타베로그 3.65<br/>1-24-11 Tomioka, Koto-ku<br/>+81 3-5809-9022<br/><a href="https://guide.michelin.com/en/tokyo-region/tokyo/restaurant/trattoria-buca-massimo">MICHELIN</a> · <a href="https://tabelog.com/tokyo/A1313/A131303/13194455/">타베로그</a> · <a href="https://www.tablecheck.com/shops/bucamassimo/reserve?utm_source=michelin_guide">예약</a>]]></description>
<Point><coordinates>139.798513,35.670349,0</coordinates></Point>
</Placemark>
<Placemark>
<name>AUDACE</name>
<description><![CDATA[アウダチェ<br/>이탈리안 · ¥¥ · 타베로그 3.51<br/>3-8-1 Kamimeguro, Meguro-ku<br/>+81 3-6451-2146<br/><a href="https://guide.michelin.com/en/tokyo-region/tokyo/restaurant/audace">MICHELIN</a> · <a href="https://tabelog.com/tokyo/A1317/A131701/13241829/">타베로그</a> · <a href="https://www.tablecheck.com/shops/audace/reserve?utm_source=michelin_guide">예약</a>]]></description>
<Point><coordinates>139.697899,35.64477,0</coordinates></Point>
</Placemark>
<Placemark>
<name>Le Monde Gourmand</name>
<description><![CDATA[ル モンド グルマン<br/>프렌치 · ¥¥ · 타베로그 3.72<br/>2-17-15 Midorigaoka, Meguro-ku<br/>+81 3-5726-8657<br/><a href="https://guide.michelin.com/en/tokyo-region/tokyo/restaurant/le-monde-gourmand">MICHELIN</a> · <a href="https://tabelog.com/tokyo/A1317/A131703/13187979/">타베로그</a> · <a href="https://omakaseje.com/r/ok456758?utm_source=michelinofficial&amp;utm_medium=referral&amp;utm_content=booking_btn">예약</a>]]></description>
<Point><coordinates>139.672178,35.608524,0</coordinates></Point>
</Placemark>
<Placemark>
<name>Ramen Break Beats</name>
<description><![CDATA[ラーメン ブレイクビーツ<br/>라멘 · ¥ · 타베로그 3.84<br/>4-21-19 Meguro, Meguro-ku<br/><a href="https://guide.michelin.com/en/tokyo-region/tokyo/restaurant/ramen-break-beats">MICHELIN</a> · <a href="https://tabelog.com/tokyo/A1317/A131701/13267329/">타베로그</a> · <a href="https://www.tablecheck.com/shops/ramenbreakbeats/reserve/login_required?utm_source=michelin_guide">예약</a>]]></description>
<Point><coordinates>139.698778,35.633515,0</coordinates></Point>
</Placemark>
<Placemark>
<name>Teuchi Asama</name>
<description><![CDATA[手打ち あさま<br/>라멘 · ¥ · 타베로그 3.68<br/>2-13-7 Kamimeguro, Meguro-ku<br/><a href="https://guide.michelin.com/en/tokyo-region/tokyo/restaurant/teuchi-asama">MICHELIN</a> · <a href="https://tabelog.com/tokyo/A1317/A131701/13302326/">타베로그</a>]]></description>
<Point><coordinates>139.698022,35.64274,0</coordinates></Point>
</Placemark>
<Placemark>
<name>YAKUMO</name>
<description><![CDATA[八雲<br/>라멘 · ¥ · 타베로그 3.78<br/>3-6-15 Higashiyama, Meguro-ku<br/>+81 3-6303-3663<br/><a href="https://guide.michelin.com/en/tokyo-region/tokyo/restaurant/yakumo">MICHELIN</a> · <a href="https://tabelog.com/tokyo/A1317/A131705/13204333/">타베로그</a>]]></description>
<Point><coordinates>139.686847,35.65014,0</coordinates></Point>
</Placemark>
<Placemark>
<name>AlCeppo</name>
<description><![CDATA[アルチェッポ<br/>이탈리안 · ¥¥ · 타베로그 3.31<br/>2F, 1-25-32 Shirokane, Minato-ku<br/>+81 3-5424-1331<br/><a href="https://guide.michelin.com/en/tokyo-region/tokyo/restaurant/alceppo">MICHELIN</a> · <a href="https://tabelog.com/tokyo/A1316/A131602/13258692/">타베로그</a>]]></description>
<Point><coordinates>139.731574,35.644588,0</coordinates></Point>
</Placemark>
<Placemark>
<name>IRUCA TOKYO</name>
<description><![CDATA[入鹿 TOKYO<br/>라멘 · ¥ · 타베로그 3.88<br/>4-12-12 Roppongi, Minato-ku<br/><a href="https://guide.michelin.com/en/tokyo-region/tokyo/restaurant/iruca-tokyo">MICHELIN</a> · <a href="https://tabelog.com/tokyo/A1328/A132802/13234223/">타베로그</a>]]></description>
<Point><coordinates>139.731691,35.664771,0</coordinates></Point>
</Placemark>
<Placemark>
<name>L'AS</name>
<description><![CDATA[ラス<br/>프렌치 · ¥¥<br/>4-16-3 Minamiaoyama, Minato-ku<br/>+81 80-3310-4058<br/><a href="https://guide.michelin.com/en/tokyo-region/tokyo/restaurant/l-as">MICHELIN</a> · <a href="https://tabelog.com/nagano/A2004/A200404/20021639/">타베로그</a> · <a href="https://www.tablecheck.com/shops/las-minamiaoyama/reserve?utm_source=michelin_guide">예약</a>]]></description>
<Point><coordinates>139.717125,35.666014,0</coordinates></Point>
</Placemark>
<Placemark>
<name>LAUBURU</name>
<description><![CDATA[ローブリュー<br/>프렌치 · ¥¥ · 타베로그 3.68<br/>6-8-18 Minamiaoyama, Minato-ku<br/>+81 3-3498-1314<br/><a href="https://guide.michelin.com/en/tokyo-region/tokyo/restaurant/lauburu">MICHELIN</a> · <a href="https://tabelog.com/tokyo/A1306/A130602/13002092/">타베로그</a>]]></description>
<Point><coordinates>139.716589,35.659959,0</coordinates></Point>
</Placemark>
<Placemark>
<name>Les six</name>
<description><![CDATA[レ シス<br/>프렌치 · ¥¥ · 타베로그 3.28<br/>2F, 5-15-25 Minamiazabu, Minato-ku<br/>+81 3-6826-2764<br/><a href="https://guide.michelin.com/en/tokyo-region/tokyo/restaurant/les-six">MICHELIN</a> · <a href="https://tabelog.com/tokyo/A1307/A130703/13297761/">타베로그</a>]]></description>
<Point><coordinates>139.722428,35.651815,0</coordinates></Point>
</Placemark>
<Placemark>
<name>Ma Cuisine</name>
<description><![CDATA[マ・キュイジーヌ<br/>프렌치 · ¥¥ · 타베로그 3.65<br/>B1F, 1-2-14 Nishiazabu, Minato-ku<br/>+81 3-6455-4426<br/><a href="https://guide.michelin.com/en/tokyo-region/tokyo/restaurant/ma-cuisine-1194175">MICHELIN</a> · <a href="https://tabelog.com/tokyo/A1307/A130701/13241748/">타베로그</a> · <a href="https://omakaseje.com/r/cn185096?utm_source=michelinofficial&amp;utm_medium=referral&amp;utm_content=booking_btn">예약</a>]]></description>
<Point><coordinates>139.7267,35.660937,0</coordinates></Point>
</Placemark>
<Placemark>
<name>Osobano Kouga</name>
<description><![CDATA[おそばの甲賀<br/>소바 · ¥ · 타베로그 3.72<br/>2-14-5 Nishiazabu, Minato-ku<br/>+81 3-3797-6860<br/><a href="https://guide.michelin.com/en/tokyo-region/tokyo/restaurant/osobano-kouga">MICHELIN</a> · <a href="https://tabelog.com/tokyo/A1307/A130701/13047594/">타베로그</a> · <a href="https://www.tablecheck.com/osobanokouga/reserve/message?utm_source=michelin_guide">예약</a>]]></description>
<Point><coordinates>139.722767,35.660055,0</coordinates></Point>
</Placemark>
<Placemark>
<name>ROZZO SICILIA</name>
<description><![CDATA[ロッツォ シチリア<br/>이탈리안 · ¥¥ · 타베로그 3.69<br/>1-1-12 Shirokane, Minato-ku<br/>+81 3-5447-1955<br/><a href="https://guide.michelin.com/en/tokyo-region/tokyo/restaurant/rozzo-sicilia">MICHELIN</a> · <a href="https://tabelog.com/tokyo/A1316/A131602/13131551/">타베로그</a>]]></description>
<Point><coordinates>139.731756,35.646974,0</coordinates></Point>
</Placemark>
<Placemark>
<name>Soba Tajima</name>
<description><![CDATA[蕎麦 たじま<br/>소바 · ¥ · 타베로그 3.69<br/>3-8-6 Nishiazabu, Minato-ku<br/>+81 3-3445-6617<br/><a href="https://guide.michelin.com/en/tokyo-region/tokyo/restaurant/soba-tajima">MICHELIN</a> · <a href="https://tabelog.com/tokyo/A1307/A130703/13020154/">타베로그</a>]]></description>
<Point><coordinates>139.726132,35.654728,0</coordinates></Point>
</Placemark>
<Placemark>
<name>Sushi Mikata</name>
<description><![CDATA[鮨 三か田<br/>스시 · ¥¥ · 타베로그 3.65<br/>4-1-4 Mita, Minato-ku<br/>+81 70-8340-4141<br/><a href="https://guide.michelin.com/en/tokyo-region/tokyo/restaurant/sushi-mikata">MICHELIN</a> · <a href="https://tabelog.com/tokyo/A1314/A131402/13290333/">타베로그</a> · <a href="https://www.tablecheck.com/sushimikata/reserve/message?utm_source=michelin_guide">예약</a>]]></description>
<Point><coordinates>139.741381,35.647756,0</coordinates></Point>
</Placemark>
<Placemark>
<name>T'astous</name>
<description><![CDATA[タストゥー<br/>프렌치 · ¥¥ · 타베로그 3.53<br/>2-5-21 Minamiazabu, Minato-ku<br/>+81 3-6435-4722<br/><a href="https://guide.michelin.com/en/tokyo-region/tokyo/restaurant/t-astous">MICHELIN</a> · <a href="https://tabelog.com/tokyo/A1307/A130702/13184805/">타베로그</a>]]></description>
<Point><coordinates>139.737004,35.649953,0</coordinates></Point>
</Placemark>
<Placemark>
<name>Tachigui Sushi Tonari</name>
<description><![CDATA[立喰 鮨となり<br/>스시 · ¥¥ · 타베로그 3.69<br/>2F, 2-8-7 Azabujuban, Minato-ku<br/>+81 3-6453-9950<br/><a href="https://guide.michelin.com/en/tokyo-region/tokyo/restaurant/tachigui-sushi-tonari">MICHELIN</a> · <a href="https://tabelog.com/tokyo/A1307/A130702/13267404/">타베로그</a>]]></description>
<Point><coordinates>139.734852,35.655547,0</coordinates></Point>
</Placemark>
<Placemark>
<name>Tempura Kakiage Yukimura</name>
<description><![CDATA[天ぷら かき揚げ 之村<br/>텐푸라 · ¥ · 타베로그 3.56<br/>6-13-13 Shimbashi, Minato-ku<br/>+81 3-6721-5343<br/><a href="https://guide.michelin.com/en/tokyo-region/tokyo/restaurant/tempura-kakiage-yukimura">MICHELIN</a> · <a href="https://tabelog.com/tokyo/A1314/A131401/13226656/">타베로그</a>]]></description>
<Point><coordinates>139.75356,35.661982,0</coordinates></Point>
</Placemark>
<Placemark>
<name>Yoshoku Edoya</name>
<description><![CDATA[洋食 エドヤ<br/>요쇼쿠 · ¥ · 타베로그 3.66<br/>6-6-1 Shirokane, Minato-ku<br/>+81 3-6721-9885<br/><a href="https://guide.michelin.com/en/tokyo-region/tokyo/restaurant/yoshoku-edoya">MICHELIN</a> · <a href="https://tabelog.com/tokyo/A1316/A131602/13285741/">타베로그</a>]]></description>
<Point><coordinates>139.725583,35.644408,0</coordinates></Point>
</Placemark>
<Placemark>
<name>Sushi Yoshino</name>
<description><![CDATA[鮨 与志乃<br/>스시 · ¥¥ · 타베로그 3.44<br/>B1F, 2-30-2 Chuo, Nakano-ku<br/>+81 3-3371-8426<br/><a href="https://guide.michelin.com/en/tokyo-region/tokyo/restaurant/sushi-yoshino">MICHELIN</a> · <a href="https://tabelog.com/tokyo/A1319/A131902/13163170/">타베로그</a>]]></description>
<Point><coordinates>139.679189,35.697528,0</coordinates></Point>
</Placemark>
<Placemark>
<name>Teuchisoba Jiyusan</name>
<description><![CDATA[手打蕎麦 じゆうさん<br/>소바 · ¥¥ · 타베로그 4.04<br/>3-1-4 Eharacho, Nakano-ku<br/><a href="https://guide.michelin.com/en/tokyo-region/tokyo/restaurant/teuchisoba-jiyusan">MICHELIN</a> · <a href="https://tabelog.com/tokyo/A1321/A132101/13025978/">타베로그</a>]]></description>
<Point><coordinates>139.677122,35.729935,0</coordinates></Point>
</Placemark>
<Placemark>
<name>Sobakiri Suzuki</name>
<description><![CDATA[そばきり すゞ木<br/>소바 · ¥ · 타베로그 3.63<br/>4-43-32 Minamioizumi, Nerima-ku<br/>+81 3-5387-2010<br/><a href="https://guide.michelin.com/en/tokyo-region/tokyo/restaurant/sobakiri-suzuki">MICHELIN</a> · <a href="https://tabelog.com/tokyo/A1328/A132801/13017457/">타베로그</a>]]></description>
<Point><coordinates>139.572337,35.746817,0</coordinates></Point>
</Placemark>
<Placemark>
<name>Shinjiko Shijimi Chukasoba Kohaku</name>
<description><![CDATA[宍道湖しじみ中華蕎麦 琥珀<br/>라멘 · ¥ · 타베로그 3.91<br/>2-1-3 Nishirokugo, Ota-ku<br/>+81 3-6690-0893<br/><a href="https://guide.michelin.com/en/tokyo-region/tokyo/restaurant/shinjiko-shijimi-chukasoba-kohaku">MICHELIN</a> · <a href="https://tabelog.com/tokyo/A1315/A131503/13234195/">타베로그</a> · <a href="https://www.tablecheck.com/shops/ramenkohaku/reserve?utm_source=michelin_guide">예약</a>]]></description>
<Point><coordinates>139.711199,35.551272,0</coordinates></Point>
</Placemark>
<Placemark>
<name>Tonkatsu Enraku</name>
<description><![CDATA[とんかつ 燕楽<br/>돈카츠 · ¥ · 타베로그 3.74<br/>6-1-4 Ikegami, Ota-ku<br/>+81 3-3754-8243<br/><a href="https://guide.michelin.com/en/tokyo-region/tokyo/restaurant/tonkatsu-enraku">MICHELIN</a> · <a href="https://tabelog.com/tokyo/A1317/A131714/13034183/">타베로그</a>]]></description>
<Point><coordinates>139.704233,35.57294,0</coordinates></Point>
</Placemark>
<Placemark>
<name>Washokuya Taichi</name>
<description><![CDATA[和食や 太いち<br/>이자카야 · ¥¥ · 타베로그 3.71<br/>3-36-14 Kitasenzoku, Ota-ku<br/>+81 3-6425-9122<br/><a href="https://guide.michelin.com/en/tokyo-region/tokyo/restaurant/washokuya-taichi">MICHELIN</a> · <a href="https://tabelog.com/tokyo/A1317/A131711/13204861/">타베로그</a>]]></description>
<Point><coordinates>139.685082,35.604993,0</coordinates></Point>
</Placemark>
<Placemark>
<name>BISTRO GLOUTON</name>
<description><![CDATA[ビストロ グルトン<br/>프렌치 · ¥¥ · 타베로그 3.52<br/>2-33-7 Ikejiri, Setagaya-ku<br/>+81 3-3410-5517<br/><a href="https://guide.michelin.com/en/tokyo-region/tokyo/restaurant/bistro-glouton">MICHELIN</a> · <a href="https://tabelog.com/tokyo/A1317/A131705/13173920/">타베로그</a> · <a href="https://omakaseje.com/r/fl790171?utm_source=michelinofficial&amp;utm_medium=referral&amp;utm_content=booking_btn">예약</a>]]></description>
<Point><coordinates>139.682312,35.648675,0</coordinates></Point>
</Placemark>
<Placemark>
<name>DIALOGUE</name>
<description><![CDATA[ディアログ<br/>프렌치 · ¥¥ · 타베로그 3.51<br/>3-23-21 Kitazawa, Setagaya-ku<br/>+81 3-6804-8820<br/><a href="https://guide.michelin.com/en/tokyo-region/tokyo/restaurant/dialogue-1200268">MICHELIN</a> · <a href="https://tabelog.com/tokyo/A1318/A131802/13156558/">타베로그</a> · <a href="https://omakaseje.com/restaurants/uk375194?utm_source=michelinofficial&amp;utm_medium=referral&amp;utm_content=booking_btn">예약</a>]]></description>
<Point><coordinates>139.669812,35.664959,0</coordinates></Point>
</Placemark>
<Placemark>
<name>Gigio</name>
<description><![CDATA[ジージョ<br/>이탈리안 · ¥¥ · 타베로그 3.55<br/>4-24-19 Wakabayashi, Setagaya-ku<br/>+81 3-6805-4949<br/><a href="https://guide.michelin.com/en/tokyo-region/tokyo/restaurant/gigio">MICHELIN</a> · <a href="https://tabelog.com/tokyo/A1317/A131709/13298862/">타베로그</a>]]></description>
<Point><coordinates>139.654755,35.644595,0</coordinates></Point>
</Placemark>
<Placemark>
<name>LANBRoA</name>
<description><![CDATA[ランブロア<br/>스페인 · ¥¥ · 타베로그 3.5<br/>3-11-15 Yoga, Setagaya-ku<br/>+81 3-6432-7017<br/><a href="https://guide.michelin.com/en/tokyo-region/tokyo/restaurant/lanbroa">MICHELIN</a> · <a href="https://tabelog.com/tokyo/A1317/A131707/13203050/">타베로그</a>]]></description>
<Point><coordinates>139.636268,35.628673,0</coordinates></Point>
</Placemark>
<Placemark>
<name>Lien</name>
<description><![CDATA[リアン<br/>프렌치 · ¥¥ · 타베로그 3.3<br/>3-5-22 Ikejiri, Setagaya-ku<br/>+81 3-6413-8552<br/><a href="https://guide.michelin.com/en/tokyo-region/tokyo/restaurant/lien">MICHELIN</a> · <a href="https://tabelog.com/tokyo/A1327/A132701/13161454/">타베로그</a> · <a href="https://www.tablecheck.com/shops/lien-french/reserve?utm_source=michelin_guide">예약</a>]]></description>
<Point><coordinates>139.681147,35.651263,0</coordinates></Point>
</Placemark>
<Placemark>
<name>Seki Hanare</name>
<description><![CDATA[セキ ハナレ<br/>일식 · ¥¥ · 타베로그 3.61<br/>3-1-3 Setagaya, Setagaya-ku<br/>+81 3-5450-5870<br/><a href="https://guide.michelin.com/en/tokyo-region/tokyo/restaurant/seki-hanare">MICHELIN</a> · <a href="https://tabelog.com/tokyo/A1317/A131709/13165043/">타베로그</a>]]></description>
<Point><coordinates>139.649926,35.6428,0</coordinates></Point>
</Placemark>
<Placemark>
<name>Tohakuan Karibe</name>
<description><![CDATA[東白庵 かりべ<br/>소바 · ¥ · 타베로그 3.68<br/>4-23-19 Kasuya, Setagaya-ku<br/>+81 3-6879-8998<br/><a href="https://guide.michelin.com/en/tokyo-region/tokyo/restaurant/tohakuan-karibe">MICHELIN</a> · <a href="https://tabelog.com/tokyo/A1318/A131809/13240194/">타베로그</a>]]></description>
<Point><coordinates>139.602984,35.663492,0</coordinates></Point>
</Placemark>
<Placemark>
<name>ZUPPERIA OSTERIA PITIGLIANO</name>
<description><![CDATA[ズッペリア・オステリア・ピティリアーノ<br/>이탈리안 · ¥¥ · 타베로그 3.67<br/>2F, 3-4-9 Soshigaya, Setagaya-ku<br/>+81 3-3789-0017<br/><a href="https://guide.michelin.com/en/tokyo-region/tokyo/restaurant/zupperia-osteria-pitigliano">MICHELIN</a> · <a href="https://tabelog.com/tokyo/A1318/A131814/13177165/">타베로그</a>]]></description>
<Point><coordinates>139.606484,35.643044,0</coordinates></Point>
</Placemark>
<Placemark>
<name>Arrocería Sal y Amor</name>
<description><![CDATA[アロセリア サル イ アモール<br/>스페인 · ¥¥ · 타베로그 3.71<br/>B1F, 12-19 Daikanyamacho, Shibuya-ku<br/>+81 3-5428-6488<br/><a href="https://guide.michelin.com/en/tokyo-region/tokyo/restaurant/arroceria-sal-y-amor">MICHELIN</a> · <a href="https://tabelog.com/tokyo/A1303/A130303/13151425/">타베로그</a> · <a href="https://www.tablecheck.com/shops/salyamor/reserve?utm_source=michelin_guide">예약</a>]]></description>
<Point><coordinates>139.703514,35.65085,0</coordinates></Point>
</Placemark>
<Placemark>
<name>BRAMASOLE</name>
<description><![CDATA[ブラマソーレ<br/>이탈리안 · ¥¥ · 타베로그 3.2<br/>3-42-5 Jingumae, Shibuya-ku<br/>+81 3-6434-0615<br/><a href="https://guide.michelin.com/en/tokyo-region/tokyo/restaurant/bramasole">MICHELIN</a> · <a href="https://tabelog.com/saitama/A1106/A110601/11003168/">타베로그</a>]]></description>
<Point><coordinates>139.713757,35.670999,0</coordinates></Point>
</Placemark>
<Placemark>
<name>Cristiano's</name>
<description><![CDATA[クリスチアノ<br/>포르투갈 · ¥¥ · 타베로그 3.62<br/>1-51-10 Tomigaya Shibuya-ku<br/>+81 3-5790-0909<br/><a href="https://guide.michelin.com/en/tokyo-region/tokyo/restaurant/cristiano-s">MICHELIN</a> · <a href="https://tabelog.com/tokyo/A1318/A131810/13120409/">타베로그</a>]]></description>
<Point><coordinates>139.689062,35.668592,0</coordinates></Point>
</Placemark>
<Placemark>
<name>falò</name>
<description><![CDATA[ファロ<br/>이탈리안 · ¥¥ · 타베로그 3.02<br/>B1F, 14-10 Daikanyamacho, Shibuya-ku<br/>+81 3-6455-0206<br/><a href="https://guide.michelin.com/en/tokyo-region/tokyo/restaurant/falo">MICHELIN</a> · <a href="https://tabelog.com/hokkaido/A0112/A011201/1083998/">타베로그</a> · <a href="https://omakaseje.com/restaurants/ze113891?utm_source=michelinofficial&amp;utm_medium=referral&amp;utm_content=booking_btn">예약</a>]]></description>
<Point><coordinates>139.704283,35.650023,0</coordinates></Point>
</Placemark>
<Placemark>
<name>Hibino Chukashokudo</name>
<description><![CDATA[日々の中華食堂<br/>중식 · ¥¥ · 타베로그 3.65<br/>1-33-11 Uehara, Shibuya-ku<br/>+81 3-5790-9655<br/><a href="https://guide.michelin.com/en/tokyo-region/tokyo/restaurant/hibino-chukashokudo">MICHELIN</a> · <a href="https://tabelog.com/tokyo/A1318/A131811/13260943/">타베로그</a> · <a href="https://www.tablecheck.com/shops/hibino-chuuka/reserve?utm_source=michelin_guide">예약</a>]]></description>
<Point><coordinates>139.680787,35.669108,0</coordinates></Point>
</Placemark>
<Placemark>
<name>IL BALLOND'ORO</name>
<description><![CDATA[イル バロンドーロ<br/>이탈리안 · ¥¥ · 타베로그 3.72<br/>1-24-10 Ebisu, Shibuya-ku<br/>+81 3-5422-8977<br/><a href="https://guide.michelin.com/en/tokyo-region/tokyo/restaurant/il-ballond-oro">MICHELIN</a> · <a href="https://tabelog.com/tokyo/A1303/A130302/13229964/">타베로그</a>]]></description>
<Point><coordinates>139.715464,35.646608,0</coordinates></Point>
</Placemark>
<Placemark>
<name>jeeten</name>
<description><![CDATA[ジーテン<br/>중식 · ¥¥ · 타베로그 3.58<br/>3-2-3 Nishihara, Shibuya-ku<br/>+81 3-3469-9333<br/><a href="https://guide.michelin.com/en/tokyo-region/tokyo/restaurant/jeeten">MICHELIN</a> · <a href="https://tabelog.com/tokyo/A1318/A131811/13001849/">타베로그</a>]]></description>
<Point><coordinates>139.68257,35.670403,0</coordinates></Point>
</Placemark>
<Placemark>
<name>Katsuo Shokudo</name>
<description><![CDATA[かつお食堂<br/>일식 · ¥ · 타베로그 3.68<br/>B1F, 7-12 Uguisudanicho, Shibuya-ku<br/>+81 3-6877-5324<br/><a href="https://guide.michelin.com/en/tokyo-region/tokyo/restaurant/katsuo-shokudo">MICHELIN</a> · <a href="https://tabelog.com/tokyo/A1303/A130301/13237611/">타베로그</a>]]></description>
<Point><coordinates>139.702122,35.654087,0</coordinates></Point>
</Placemark>
<Placemark>
<name>Kinoshita</name>
<description><![CDATA[キノシタ<br/>프렌치 · ¥¥ · 타베로그 3.78<br/>3-37-1 Yoyogi, Shibuya-ku<br/>+81 3-3376-5336<br/><a href="https://guide.michelin.com/en/tokyo-region/tokyo/restaurant/kinoshita-1197753">MICHELIN</a> · <a href="https://tabelog.com/tokyo/A1318/A131810/13001058/">타베로그</a> · <a href="https://www.tablecheck.com/restaurantkinoshita/reserve?utm_source=michelin_guide">예약</a>]]></description>
<Point><coordinates>139.69341,35.681813,0</coordinates></Point>
</Placemark>
<Placemark>
<name>Kuhara</name>
<description><![CDATA[久原<br/>일식 · ¥¥ · 타베로그 3.6<br/>2-25-38 Higashi, Shibuya-ku<br/>+81 50-5596-3472<br/><a href="https://guide.michelin.com/en/tokyo-region/tokyo/restaurant/koryori-kuhara">MICHELIN</a> · <a href="https://tabelog.com/tokyo/A1303/A130301/13113247/">타베로그</a> · <a href="https://omakaseje.com/r/yg369648?utm_source=michelinofficial&amp;utm_medium=referral&amp;utm_content=booking_btn">예약</a>]]></description>
<Point><coordinates>139.707711,35.65356,0</coordinates></Point>
</Placemark>
<Placemark>
<name>le bistrot des bleus</name>
<description><![CDATA[ル ビストロ デ ブル<br/>프렌치 · ¥¥ · 타베로그 3.72<br/>2F, EAT PLAY WORKS, 5-4-16 Hiro, Shibuya-ku<br/>+81 3-6447-7131<br/><a href="https://guide.michelin.com/en/tokyo-region/tokyo/restaurant/le-bistrot-des-bleus">MICHELIN</a> · <a href="https://tabelog.com/tokyo/A1307/A130703/13291617/">타베로그</a> · <a href="https://www.tablecheck.com/shops/le-bistrot-des-bleus/reserve?utm_source=michelin_guide">예약</a>]]></description>
<Point><coordinates>139.721829,35.650758,0</coordinates></Point>
</Placemark>
<Placemark>
<name>Le cabaret</name>
<description><![CDATA[ル・キャバレ<br/>프렌치 · ¥¥ · 타베로그 3.66<br/>8-8 Motoyoyogicho, Shibuya-ku<br/>+81 3-3469-7466<br/><a href="https://guide.michelin.com/en/tokyo-region/tokyo/restaurant/le-cabaret-1194236">MICHELIN</a> · <a href="https://tabelog.com/tokyo/A1318/A131810/13014486/">타베로그</a>]]></description>
<Point><coordinates>139.685344,35.670097,0</coordinates></Point>
</Placemark>
<Placemark>
<name>Los Reyes Magos</name>
<description><![CDATA[ロス レイエス マーゴス<br/>스페인 · ¥¥ · 타베로그 3.56<br/>5-55-7 Yoyogi, Shibuya-ku<br/>+81 3-3469-8231<br/><a href="https://guide.michelin.com/en/tokyo-region/tokyo/restaurant/los-reyes-magos">MICHELIN</a> · <a href="https://tabelog.com/tokyo/A1318/A131810/13001848/">타베로그</a>]]></description>
<Point><coordinates>139.692365,35.677867,0</coordinates></Point>
</Placemark>
<Placemark>
<name>Night Market</name>
<description><![CDATA[ナイトマーケット<br/>동남아 · ¥¥<br/>2-6-6 Shibuya, Shibuya-ku<br/>+81 3-6433-5516<br/><a href="https://guide.michelin.com/en/tokyo-region/tokyo/restaurant/night-market-1241936">MICHELIN</a> · <a href="https://tabelog.com/yamanashi/A1902/A190201/19009552/">타베로그</a> · <a href="https://omakase.in/ja/r/wa559923?utm_source=michelinofficial&amp;utm_medium=referral&amp;utm_content=booking_btn">예약</a>]]></description>
<Point><coordinates>139.708022,35.659725,0</coordinates></Point>
</Placemark>
<Placemark>
<name>REI</name>
<description><![CDATA[レイ<br/>중식 · ¥¥ · 타베로그 3.69<br/>10-8 Motoyoyogicho, Shibuya-ku<br/>+81 3-6416-8803<br/><a href="https://guide.michelin.com/en/tokyo-region/tokyo/restaurant/rei">MICHELIN</a> · <a href="https://tabelog.com/tokyo/A1315/A131503/13003307/">타베로그</a>]]></description>
<Point><coordinates>139.684517,35.670208,0</coordinates></Point>
</Placemark>
<Placemark>
<name>Tachiguisushi Sushikawa</name>
<description><![CDATA[立食い鮨 鮨川<br/>스시 · ¥¥ · 타베로그 3.55<br/>1-62-6 Sasazuka, Shibuya-ku<br/>+81 90-9260-3611<br/><a href="https://guide.michelin.com/en/tokyo-region/tokyo/restaurant/tachiguisushi-sushikawa">MICHELIN</a> · <a href="https://tabelog.com/tokyo/A1318/A131808/13274605/">타베로그</a> · <a href="https://omakaseje.com/restaurants/xs142940?utm_source=michelinofficial&amp;utm_medium=referral&amp;utm_content=booking_btn">예약</a>]]></description>
<Point><coordinates>139.662367,35.67279,0</coordinates></Point>
</Placemark>
<Placemark>
<name>Tonkatsu Nanaido</name>
<description><![CDATA[とんかつ 七井戸<br/>돈카츠 · ¥ · 타베로그 3.97<br/>3-42-11 Jingumae, Shibuya-ku<br/>+81 80-8190-1331<br/><a href="https://guide.michelin.com/en/tokyo-region/tokyo/restaurant/tonkatsu-nanaido">MICHELIN</a> · <a href="https://tabelog.com/tokyo/A1306/A130603/13229075/">타베로그</a>]]></description>
<Point><coordinates>139.713803,35.671805,0</coordinates></Point>
</Placemark>
<Placemark>
<name>Torishige</name>
<description><![CDATA[鳥茂<br/>돼지고기 · ¥¥ · 타베로그 4.05<br/>2-6-5 Yoyogi, Shibuya-ku<br/>+81 3-3379-5188<br/><a href="https://guide.michelin.com/en/tokyo-region/tokyo/restaurant/torishige">MICHELIN</a> · <a href="https://tabelog.com/tokyo/A1318/A131810/13001067/">타베로그</a>]]></description>
<Point><coordinates>139.698876,35.687987,0</coordinates></Point>
</Placemark>
<Placemark>
<name>Homemade Ramen Muginae</name>
<description><![CDATA[Homemade Ramen 麦苗<br/>라멘 · ¥ · 타베로그 4.02<br/>6-11-10 Minamioi, Shinagawa-ku<br/><a href="https://guide.michelin.com/en/tokyo-region/tokyo/restaurant/homemade-ramen-muginae">MICHELIN</a> · <a href="https://tabelog.com/tokyo/A1315/A131502/13194812/">타베로그</a> · <a href="https://www.tablecheck.com/shops/muginae/reserve?utm_source=michelin_guide">예약</a>]]></description>
<Point><coordinates>139.732803,35.590775,0</coordinates></Point>
</Placemark>
<Placemark>
<name>Mochibuta Tonkatsu Taiyo</name>
<description><![CDATA[もち豚とんかつ たいよう<br/>돈카츠 · ¥ · 타베로그 3.7<br/>3-22-7 Koyama, Shinagawa-ku<br/>+81 3-3786-1464<br/><a href="https://guide.michelin.com/en/tokyo-region/tokyo/restaurant/mochibuta-tonkatsu-taiyo">MICHELIN</a> · <a href="https://tabelog.com/tokyo/A1317/A131710/13059862/">타베로그</a>]]></description>
<Point><coordinates>139.706435,35.618815,0</coordinates></Point>
</Placemark>
<Placemark>
<name>Yakitori Abe</name>
<description><![CDATA[やきとり 阿部<br/>야키토리 · ¥¥ · 타베로그 3.68<br/>3-3-4 Kamiosaki, Shinagawa-ku<br/>+81 3-5422-9834<br/><a href="https://guide.michelin.com/en/tokyo-region/tokyo/restaurant/yakitori-abe">MICHELIN</a> · <a href="https://tabelog.com/tokyo/A1316/A131601/13197391/">타베로그</a> · <a href="https://omakaseje.com/r/nw350307?utm_source=michelinofficial&amp;utm_medium=referral&amp;utm_content=booking_btn">예약</a>]]></description>
<Point><coordinates>139.718071,35.633996,0</coordinates></Point>
</Placemark>
<Placemark>
<name>Kyorakutei</name>
<description><![CDATA[蕎楽亭<br/>소바 · ¥ · 타베로그 3.75<br/>3-6 Kagurazaka, Shinjuku-ku<br/>+81 3-3269-3233<br/><a href="https://guide.michelin.com/en/tokyo-region/tokyo/restaurant/kyorakutei">MICHELIN</a> · <a href="https://tabelog.com/tokyo/A1309/A130905/13000479/">타베로그</a>]]></description>
<Point><coordinates>139.739514,35.700778,0</coordinates></Point>
</Placemark>
<Placemark>
<name>L'AMITIE</name>
<description><![CDATA[ラミティエ<br/>프렌치 · ¥¥ · 타베로그 3.72<br/>2-9-12 Takadanobaba, Shinjuku-ku<br/>+81 3-5272-5010<br/><a href="https://guide.michelin.com/en/tokyo-region/tokyo/restaurant/l-amitie-1194223">MICHELIN</a> · <a href="https://tabelog.com/tokyo/A1305/A130503/13004131/">타베로그</a>]]></description>
<Point><coordinates>139.707969,35.712099,0</coordinates></Point>
</Placemark>
<Placemark>
<name>Loiseau de France</name>
<description><![CDATA[ロワゾー・ドゥ・フランス<br/>프렌치 · ¥¥ · 타베로그 3.45<br/>15 Ichigayafunagawaramachi, Shinjuku-ku<br/>+81 3-6280-7803<br/><a href="https://guide.michelin.com/en/tokyo-region/tokyo/restaurant/loiseau-de-france">MICHELIN</a> · <a href="https://tabelog.com/tokyo/A1309/A130905/13297344/">타베로그</a> · <a href="https://www.tablecheck.com/loiseau-de-france/reserve/message?utm_source=michelin_guide">예약</a>]]></description>
<Point><coordinates>139.740054,35.697974,0</coordinates></Point>
</Placemark>
<Placemark>
<name>Meishan</name>
<description><![CDATA[梅香<br/>중식 · ¥¥ · 타베로그 3.08<br/>37-39 Yokoteramachi, Shinjuku-ku<br/>+81 3-3260-2658<br/><a href="https://guide.michelin.com/en/tokyo-region/tokyo/restaurant/meishan">MICHELIN</a> · <a href="https://tabelog.com/toyama/A1605/A160502/16007211/">타베로그</a>]]></description>
<Point><coordinates>139.73633,35.701196,0</coordinates></Point>
</Placemark>
<Placemark>
<name>RAMEN MATSUI</name>
<description><![CDATA[ラーメン マツイ<br/>라멘 · ¥ · 타베로그 3.82<br/>4-25-10 Yotsuya, Shinjuku-ku<br/><a href="https://guide.michelin.com/en/tokyo-region/tokyo/restaurant/ramen-matsui">MICHELIN</a> · <a href="https://tabelog.com/tokyo/A1304/A130402/13285098/">타베로그</a> · <a href="https://www.tablecheck.com/shops/ramen-matsui/reserve?utm_source=michelin_guide">예약</a>]]></description>
<Point><coordinates>139.715487,35.689095,0</coordinates></Point>
</Placemark>
<Placemark>
<name>Shinrakuki</name>
<description><![CDATA[新楽記<br/>중식 · ¥¥ · 타베로그 3.7<br/>2-7 Wakaba, Shinjuku-ku<br/>+81 3-6380-0423<br/><a href="https://guide.michelin.com/en/tokyo-region/tokyo/restaurant/shinrakuki">MICHELIN</a> · <a href="https://tabelog.com/tokyo/A1309/A130903/13305561/">타베로그</a> · <a href="https://omakaseje.com/restaurants/bi212881?utm_source=michelinofficial&amp;utm_medium=referral&amp;utm_content=booking_btn">예약</a>]]></description>
<Point><coordinates>139.723891,35.685578,0</coordinates></Point>
</Placemark>
<Placemark>
<name>Shokudo Wata</name>
<description><![CDATA[食堂わた<br/>이자카야 · ¥¥ · 타베로그 3.73<br/>1-19-11 Shinjuku, Shinjuku-ku<br/>+81 3-6822-7907<br/><a href="https://guide.michelin.com/en/tokyo-region/tokyo/restaurant/shokudo-wata">MICHELIN</a> · <a href="https://tabelog.com/tokyo/A1304/A130402/13301720/">타베로그</a>]]></description>
<Point><coordinates>139.713012,35.689798,0</coordinates></Point>
</Placemark>
<Placemark>
<name>Soba Osame</name>
<description><![CDATA[蕎麦 おさめ<br/>소바 · ¥¥ · 타베로그 3.79<br/>3-21-5 Shimochiai, Shinjuku-ku<br/>+81 3-6908-2362<br/><a href="https://guide.michelin.com/en/tokyo-region/tokyo/restaurant/soba-osame">MICHELIN</a> · <a href="https://tabelog.com/tokyo/A1305/A130502/13283508/">타베로그</a> · <a href="https://omakaseje.com/restaurants/aq960210?utm_source=michelinofficial&amp;utm_medium=referral&amp;utm_content=booking_btn">예약</a>]]></description>
<Point><coordinates>139.701032,35.722628,0</coordinates></Point>
</Placemark>
<Placemark>
<name>Sushidokoro Shigeru</name>
<description><![CDATA[すし処 志げる<br/>스시 · ¥¥ · 타베로그 3.65<br/>15 Funamachi, Shinjuku-ku<br/>+81 3-3226-1588<br/><a href="https://guide.michelin.com/en/tokyo-region/tokyo/restaurant/sushidokoro-shigeru">MICHELIN</a> · <a href="https://tabelog.com/tokyo/A1309/A130903/13165153/">타베로그</a>]]></description>
<Point><coordinates>139.721697,35.691759,0</coordinates></Point>
</Placemark>
<Placemark>
<name>Tonkatsu Hinata</name>
<description><![CDATA[とんかつ ひなた<br/>돈카츠 · ¥ · 타베로그 3.71<br/>2-13-9 Takadanobaba, Shinjuku-ku<br/>+81 3-6380-2424<br/><a href="https://guide.michelin.com/en/tokyo-region/tokyo/restaurant/tonkatsu-hinata">MICHELIN</a> · <a href="https://tabelog.com/tokyo/A1305/A130503/13204289/">타베로그</a>]]></description>
<Point><coordinates>139.707493,35.712956,0</coordinates></Point>
</Placemark>
<Placemark>
<name>Yakitori SANKA</name>
<description><![CDATA[焼鳥 山香<br/>야키토리 · ¥¥ · 타베로그 3.7<br/>2F, 64-4 Yaraicho, Shinjuku-ku<br/>+81 3-6265-0108<br/><a href="https://guide.michelin.com/en/tokyo-region/tokyo/restaurant/yakitori-sanka">MICHELIN</a> · <a href="https://tabelog.com/tokyo/A1309/A130905/13245585/">타베로그</a> · <a href="https://www.tablecheck.com/shops/yakitori-sanka/reserve?utm_source=michelin_guide">예약</a>]]></description>
<Point><coordinates>139.732869,35.703438,0</coordinates></Point>
</Placemark>
<Placemark>
<name>Sasaki Seimenjo</name>
<description><![CDATA[佐々木製麺所<br/>라멘 · ¥ · 타베로그 3.69<br/>4-26-10 Nishiogikita, Suginami-ku<br/><a href="https://guide.michelin.com/en/tokyo-region/tokyo/restaurant/sasaki-seimenjo">MICHELIN</a> · <a href="https://tabelog.com/tokyo/A1319/A131907/13210641/">타베로그</a>]]></description>
<Point><coordinates>139.592358,35.708552,0</coordinates></Point>
</Placemark>
<Placemark>
<name>Sennomago</name>
<description><![CDATA[仙ノ孫<br/>중식 · ¥¥ · 타베로그 3.61<br/>4-4-2 Nishiogikita, Suginami-ku<br/>+81 3-3390-4808<br/><a href="https://guide.michelin.com/en/tokyo-region/tokyo/restaurant/sennomago">MICHELIN</a> · <a href="https://tabelog.com/tokyo/A1319/A131907/13103891/">타베로그</a>]]></description>
<Point><coordinates>139.595811,35.706387,0</coordinates></Point>
</Placemark>
<Placemark>
<name>Shiosoba Jiku</name>
<description><![CDATA[塩そば 時空<br/>라멘 · ¥ · 타베로그 3.83<br/>4-14-7 Takaidohigashi, Suginami-ku<br/><a href="https://guide.michelin.com/en/tokyo-region/tokyo/restaurant/shiosoba-jiku">MICHELIN</a> · <a href="https://tabelog.com/tokyo/A1319/A131906/13287906/">타베로그</a> · <a href="https://www.tablecheck.com/shops/sio-soba-jiku/reserve?utm_source=michelin_guide">예약</a>]]></description>
<Point><coordinates>139.618974,35.689738,0</coordinates></Point>
</Placemark>
<Placemark>
<name>Tensuke</name>
<description><![CDATA[天すけ<br/>텐푸라 · ¥ · 타베로그 3.57<br/>3-22-7 Koenjikita, Suginami-ku<br/>+81 3-3223-8505<br/><a href="https://guide.michelin.com/en/tokyo-region/tokyo/restaurant/tensuke">MICHELIN</a> · <a href="https://tabelog.com/tokyo/A1319/A131904/13010553/">타베로그</a>]]></description>
<Point><coordinates>139.64872,35.705867,0</coordinates></Point>
</Placemark>
<Placemark>
<name>there is ramen</name>
<description><![CDATA[ゼアー イズ ラーメン<br/>라멘 · ¥ · 타베로그 3.78<br/>3-10-16 Amanuma, Suginami-ku<br/><a href="https://guide.michelin.com/en/tokyo-region/tokyo/restaurant/there-is-ramen">MICHELIN</a> · <a href="https://tabelog.com/tokyo/A1319/A131906/13277729/">타베로그</a>]]></description>
<Point><coordinates>139.618381,35.70737,0</coordinates></Point>
</Placemark>
<Placemark>
<name>Edosoba Hosokawa</name>
<description><![CDATA[江戸蕎麦 ほそ川<br/>소바 · ¥ · 타베로그 3.65<br/>1-6-5 Kamezawa, Sumida-ku<br/>+81 3-3626-1125<br/><a href="https://guide.michelin.com/en/tokyo-region/tokyo/restaurant/edosoba-hosokawa">MICHELIN</a> · <a href="https://tabelog.com/tokyo/A1312/A131201/13002967/">타베로그</a>]]></description>
<Point><coordinates>139.798036,35.696701,0</coordinates></Point>
</Placemark>
<Placemark>
<name>Shutei Tanaka</name>
<description><![CDATA[酒亭 田中<br/>야키토리 · ¥¥ · 타베로그 4.26<br/>3-25-7 Sumida, Sumida-ku<br/>+81 3-3617-6615<br/><a href="https://guide.michelin.com/en/tokyo-region/tokyo/restaurant/shutei-tanaka">MICHELIN</a> · <a href="https://tabelog.com/tokyo/A1312/A131203/13285811/">타베로그</a> · <a href="https://omakase.in/r/xd293924?utm_source=michelinofficial&amp;utm_medium=referral&amp;utm_content=booking_btn">예약</a>]]></description>
<Point><coordinates>139.819549,35.731387,0</coordinates></Point>
</Placemark>
<Placemark>
<name>Sobakappo Nagano</name>
<description><![CDATA[蕎麦割烹 ながの<br/>소바 · ¥¥ · 타베로그 3.72<br/>2-20-6 Higashimukojima, Sumida-ku<br/>+81 3-6675-0167<br/><a href="https://guide.michelin.com/en/tokyo-region/tokyo/restaurant/sobakappo-nagano">MICHELIN</a> · <a href="https://tabelog.com/tokyo/A1312/A131203/13296654/">타베로그</a> · <a href="https://www.tablecheck.com/soba-kappou-nagano/reserve/message?utm_source=michelin_guide">예약</a>]]></description>
<Point><coordinates>139.814993,35.719268,0</coordinates></Point>
</Placemark>
<Placemark>
<name>Asakusa Hirayama</name>
<description><![CDATA[浅草 ひら山<br/>소바 · ¥¥ · 타베로그 3.71<br/>1-3-14 Nishiasakusa, Taito-ku<br/>+81 3-5830-6857<br/><a href="https://guide.michelin.com/en/tokyo-region/tokyo/restaurant/asakusa-hirayama">MICHELIN</a> · <a href="https://tabelog.com/tokyo/A1311/A131102/13264582/">타베로그</a> · <a href="https://omakaseje.com/restaurants/mq856673?utm_source=michelinofficial&amp;utm_medium=referral&amp;utm_content=booking_btn">예약</a>]]></description>
<Point><coordinates>139.789854,35.710706,0</coordinates></Point>
</Placemark>
<Placemark>
<name>grill GRAND</name>
<description><![CDATA[グリル グランド<br/>요쇼쿠 · ¥ · 타베로그 3.7<br/>3-24-6 Asakusa, Taito-ku<br/>+81 3-3874-2351<br/><a href="https://guide.michelin.com/en/tokyo-region/tokyo/restaurant/grill-grand">MICHELIN</a> · <a href="https://tabelog.com/tokyo/A1311/A131102/13008702/">타베로그</a>]]></description>
<Point><coordinates>139.797534,35.716956,0</coordinates></Point>
</Placemark>
<Placemark>
<name>Hatsuogawa</name>
<description><![CDATA[初小川<br/>장어 · ¥¥ · 타베로그 3.75<br/>2-8-4 Kaminarimon, Taito-ku<br/>+81 3-3844-2723<br/><a href="https://guide.michelin.com/en/tokyo-region/tokyo/restaurant/hatsuogawa">MICHELIN</a> · <a href="https://tabelog.com/tokyo/A1311/A131102/13003702/">타베로그</a>]]></description>
<Point><coordinates>139.794528,35.709758,0</coordinates></Point>
</Placemark>
<Placemark>
<name>noura</name>
<description><![CDATA[ノウラ<br/>프렌치 · ¥¥ · 타베로그 3.7<br/>4-10-6 Asakusa, Taito-ku<br/>+81 3-6458-1255<br/><a href="https://guide.michelin.com/en/tokyo-region/tokyo/restaurant/noura">MICHELIN</a> · <a href="https://tabelog.com/tokyo/A1311/A131102/13225246/">타베로그</a> · <a href="https://omakaseje.com/restaurants/go432426?utm_source=michelinofficial&amp;utm_medium=referral&amp;utm_content=booking_btn">예약</a>]]></description>
<Point><coordinates>139.797106,35.718455,0</coordinates></Point>
</Placemark>
<Placemark>
<name>Onigiri Asakusa Yadoroku</name>
<description><![CDATA[おにぎり 浅草 宿六<br/>오니기리 · ¥ · 타베로그 3.49<br/>3-9-10 Asakusa, Taito-ku<br/>+81 3-3874-1615<br/><a href="https://guide.michelin.com/en/tokyo-region/tokyo/restaurant/onigiri-asakusa-yadoroku">MICHELIN</a> · <a href="https://tabelog.com/tokyo/A1311/A131102/13024859/">타베로그</a>]]></description>
<Point><coordinates>139.794753,35.716906,0</coordinates></Point>
</Placemark>
<Placemark>
<name>Ponta Honke</name>
<description><![CDATA[ぽん多 本家<br/>요쇼쿠 · ¥¥ · 타베로그 3.77<br/>3-23-3 Ueno, Taito-ku<br/>+81 3-3831-2351<br/><a href="https://guide.michelin.com/en/tokyo-region/tokyo/restaurant/ponta-honke">MICHELIN</a> · <a href="https://tabelog.com/tokyo/A1311/A131101/13003587/">타베로그</a> · <a href="https://omakaseje.com/r/dc419614?utm_source=michelinofficial&amp;utm_medium=referral&amp;utm_content=booking_btn">예약</a>]]></description>
<Point><coordinates>139.773007,35.70631,0</coordinates></Point>
</Placemark>
<Placemark>
<name>Sugita</name>
<description><![CDATA[すぎ田<br/>돈카츠 · ¥ · 타베로그 3.66<br/>3-8-3 Kotobuki, Taito-ku<br/>+81 3-3844-5529<br/><a href="https://guide.michelin.com/en/tokyo-region/tokyo/restaurant/sugita">MICHELIN</a> · <a href="https://tabelog.com/tokyo/A1311/A131103/13003707/">타베로그</a> · <a href="https://omakaseje.com/r/sz407161?utm_source=michelinofficial&amp;utm_medium=referral&amp;utm_content=booking_btn">예약</a>]]></description>
<Point><coordinates>139.79104,35.706397,0</coordinates></Point>
</Placemark>
<Placemark>
<name>Tompachitei</name>
<description><![CDATA[とん八亭<br/>돈카츠 · ¥ · 타베로그 3.65<br/>4-3-4 Ueno, Taito-ku<br/>+81 3-3831-4209<br/><a href="https://guide.michelin.com/en/tokyo-region/tokyo/restaurant/tompachitei">MICHELIN</a> · <a href="https://tabelog.com/tokyo/A1311/A131101/13003593/">타베로그</a>]]></description>
<Point><coordinates>139.773726,35.708414,0</coordinates></Point>
</Placemark>
<Placemark>
<name>Japanese Ramen Gokan</name>
<description><![CDATA[Japanese Ramen 五感<br/>라멘 · ¥<br/>2-57-2 Higashiikebukuro, Toshima-ku<br/><a href="https://guide.michelin.com/en/tokyo-region/tokyo/restaurant/japanese-ramen-gokan">MICHELIN</a> · <a href="https://www.tablecheck.com/shops/ramen-gokan/reserve?utm_source=michelin_guide">예약</a>]]></description>
<Point><coordinates>139.717911,35.732982,0</coordinates></Point>
</Placemark>
<Placemark>
<name>Katchar Batchar</name>
<description><![CDATA[カッチャル バッチャル<br/>인도 · ¥ · 타베로그 3.83<br/>2F, 3-2-10 Minamiotsuka, Toshima-ku<br/>+81 3-5954-5551<br/><a href="https://guide.michelin.com/en/tokyo-region/tokyo/restaurant/katchar-batchar">MICHELIN</a> · <a href="https://tabelog.com/tokyo/A1323/A132302/13120294/">타베로그</a>]]></description>
<Point><coordinates>139.729481,35.727287,0</coordinates></Point>
</Placemark>
<Placemark>
<name>Matsunozushi</name>
<description><![CDATA[松野寿し<br/>스시 · ¥¥<br/>2-16-12 Minaminagasaki, Toshima-ku<br/>+81 3-3951-3588<br/><a href="https://guide.michelin.com/en/tokyo-region/tokyo/restaurant/matsunozushi">MICHELIN</a>]]></description>
<Point><coordinates>139.690794,35.726117,0</coordinates></Point>
</Placemark>
<Placemark>
<name>Mejiro Shunkotei</name>
<description><![CDATA[目白 旬香亭<br/>요쇼쿠 · ¥¥ · 타베로그 3.52<br/>2F, Trad Mejiro, 2-39-1 Mejiro, Toshima-ku<br/>+81 3-5927-1606<br/><a href="https://guide.michelin.com/en/tokyo-region/tokyo/restaurant/mejiro-shunkotei">MICHELIN</a> · <a href="https://tabelog.com/tokyo/A1301/A130102/13297328/">타베로그</a> · <a href="https://www.tablecheck.com/shops/shunkoutei-mejiro/reserve?utm_source=michelin_guide">예약</a>]]></description>
<Point><coordinates>139.70736,35.721514,0</coordinates></Point>
</Placemark>
<Placemark>
<name>Mejiro Zorome</name>
<description><![CDATA[目白 ぞろ芽<br/>장어 · ¥¥ · 타베로그 3.68<br/>B1F, 3-3-1 Mejiro, Toshima-ku<br/>+81 3-6908-3653<br/><a href="https://guide.michelin.com/en/tokyo-region/tokyo/restaurant/mejiro-zorome">MICHELIN</a> · <a href="https://tabelog.com/tokyo/A1305/A130502/13224277/">타베로그</a> · <a href="https://www.tablecheck.com/shops/unagi-zorome/reserve?utm_source=michelin_guide">예약</a>]]></description>
<Point><coordinates>139.706358,35.721552,0</coordinates></Point>
</Placemark>
<Placemark>
<name>Negima</name>
<description><![CDATA[ねぎま<br/>일식 · ¥¥ · 타베로그 3.33<br/>B1F, 2-31-19 Kitaotsuka, Toshima-ku<br/>+81 80-8739-8566<br/><a href="https://guide.michelin.com/en/tokyo-region/tokyo/restaurant/negima">MICHELIN</a> · <a href="https://tabelog.com/hokkaido/A0101/A010102/1003218/">타베로그</a> · <a href="https://omakaseje.com/r/hw756523?utm_source=michelinofficial&amp;utm_medium=referral&amp;utm_content=booking_btn">예약</a>]]></description>
<Point><coordinates>139.729926,35.734057,0</coordinates></Point>
</Placemark>
<Placemark>
<name>Sosakumenkobo NAKIRYU</name>
<description><![CDATA[創作麺工房 鳴龍<br/>라멘 · ¥ · 타베로그 3.87<br/>2-34-4 Minamiotsuka, Toshima-ku<br/>+81 3-6304-1811<br/><a href="https://guide.michelin.com/en/tokyo-region/tokyo/restaurant/sosakumenkobo-nakiryu">MICHELIN</a> · <a href="https://tabelog.com/tokyo/A1323/A132302/13141302/">타베로그</a>]]></description>
<Point><coordinates>139.730345,35.728677,0</coordinates></Point>
</Placemark>
</Document></kml>